{
  "type": "FeatureCollection",
  "features": [
    {
      "type": "Feature",
      "properties": {
        "norad_id": 30073,
        "name": "FENGYUN 1C DEB",
        "group": "fengyun-1c-debris",
        "lat": -24.821117545543995,
        "lon": 150.30461305669158,
        "alt_km": 804.2030671114417,
        "timestamp": "2025-12-26T17:24:54.993063+00:00",
        "meta_object_name": "FENGYUN 1C DEB",
        "meta_object_id": "1999-025QA",
        "meta_epoch": "2025-12-24T22:26:59.088768",
        "meta_mean_motion": 14.18735293,
        "meta_eccentricity": 0.005284,
        "meta_inclination": 99.4127,
        "meta_ra_of_asc_node": 332.806,
        "meta_arg_of_pericenter": 246.1009,
        "meta_mean_anomaly": 180.8201,
        "meta_ephemeris_type": 0,
        "meta_classification_type": "U",
        "meta_norad_cat_id": 30073,
        "meta_element_set_no": 999,
        "meta_rev_at_epoch": 97098,
        "meta_bstar": 0.0014517,
        "meta_mean_motion_dot": 3.008e-05,
        "meta_mean_motion_ddot": 0,
        "tle_line1": "1 30073U 99025QA  25358.93540612  .00003008  00000+0  14517-2 0  9991",
        "tle_line2": "2 30073  99.4127 332.8060 0052840 246.1009 180.8201 14.18735293970986"
      },
      "geometry": {
        "type": "Point",
        "coordinates": [
          150.30461305669158,
          -24.821117545543995
        ]
      }
    },
    {
      "type": "Feature",
      "properties": {
        "norad_id": 30074,
        "name": "FENGYUN 1C DEB",
        "group": "fengyun-1c-debris",
        "lat": 25.944374866221604,
        "lon": 62.74646489091759,
        "alt_km": 843.547872084454,
        "timestamp": "2025-12-26T17:24:54.993073+00:00",
        "meta_object_name": "FENGYUN 1C DEB",
        "meta_object_id": "1999-025QB",
        "meta_epoch": "2025-12-21T03:01:28.048512",
        "meta_mean_motion": 14.12895962,
        "meta_eccentricity": 0.00969654,
        "meta_inclination": 99.1289,
        "meta_ra_of_asc_node": 61.526,
        "meta_arg_of_pericenter": 128.6907,
        "meta_mean_anomaly": 232.2986,
        "meta_ephemeris_type": 0,
        "meta_classification_type": "U",
        "meta_norad_cat_id": 30074,
        "meta_element_set_no": 999,
        "meta_rev_at_epoch": 96780,
        "meta_bstar": 0.0010443796,
        "meta_mean_motion_dot": 1.987e-05,
        "meta_mean_motion_ddot": 0,
        "tle_line1": "1 30074U 99025QB  25355.12601908  .00001987  00000+0  10444-2 0  9995",
        "tle_line2": "2 30074  99.1289  61.5260 0096965 128.6907 232.2986 14.12895962967801"
      },
      "geometry": {
        "type": "Point",
        "coordinates": [
          62.74646489091759,
          25.944374866221604
        ]
      }
    },
    {
      "type": "Feature",
      "properties": {
        "norad_id": 30075,
        "name": "FENGYUN 1C DEB",
        "group": "fengyun-1c-debris",
        "lat": 0.3496401361043095,
        "lon": -128.75999144389667,
        "alt_km": 871.182502102195,
        "timestamp": "2025-12-26T17:24:54.993083+00:00",
        "meta_object_name": "FENGYUN 1C DEB",
        "meta_object_id": "1999-025QC",
        "meta_epoch": "2025-12-26T02:53:43.625184",
        "meta_mean_motion": 13.92538013,
        "meta_eccentricity": 0.0091491,
        "meta_inclination": 99.3598,
        "meta_ra_of_asc_node": 50.5713,
        "meta_arg_of_pericenter": 141.1183,
        "meta_mean_anomaly": 246.4612,
        "meta_ephemeris_type": 0,
        "meta_classification_type": "U",
        "meta_norad_cat_id": 30075,
        "meta_element_set_no": 999,
        "meta_rev_at_epoch": 96251,
        "meta_bstar": 1.4934447e-05,
        "meta_mean_motion_dot": -2.5e-07,
        "meta_mean_motion_ddot": 0,
        "tle_line1": "1 30075U 99025QC  25360.12064381 -.00000025  00000+0  14934-4 0  9993",
        "tle_line2": "2 30075  99.3598  50.5713 0091491 141.1183 246.4612 13.92538013962517"
      },
      "geometry": {
        "type": "Point",
        "coordinates": [
          -128.75999144389667,
          0.3496401361043095
        ]
      }
    },
    {
      "type": "Feature",
      "properties": {
        "norad_id": 30076,
        "name": "FENGYUN 1C DEB",
        "group": "fengyun-1c-debris",
        "lat": 39.44250087951618,
        "lon": 174.73554443730777,
        "alt_km": 955.2773320155784,
        "timestamp": "2025-12-26T17:24:54.993093+00:00",
        "meta_object_name": "FENGYUN 1C DEB",
        "meta_object_id": "1999-025QD",
        "meta_epoch": "2025-12-25T20:09:52.837632",
        "meta_mean_motion": 13.76299733,
        "meta_eccentricity": 0.01757206,
        "meta_inclination": 99.2395,
        "meta_ra_of_asc_node": 346.1808,
        "meta_arg_of_pericenter": 59.4781,
        "meta_mean_anomaly": 13.6344,
        "meta_ephemeris_type": 0,
        "meta_classification_type": "U",
        "meta_norad_cat_id": 30076,
        "meta_element_set_no": 999,
        "meta_rev_at_epoch": 95074,
        "meta_bstar": 0.0003334726,
        "meta_mean_motion_dot": 3.22e-06,
        "meta_mean_motion_ddot": 0,
        "tle_line1": "1 30076U 99025QD  25359.84019488  .00000322  00000+0  33347-3 0  9996",
        "tle_line2": "2 30076  99.2395 346.1808 0175720  59.4781  13.6344 13.76299733950747"
      },
      "geometry": {
        "type": "Point",
        "coordinates": [
          174.73554443730777,
          39.44250087951618
        ]
      }
    },
    {
      "type": "Feature",
      "properties": {
        "norad_id": 30077,
        "name": "FENGYUN 1C DEB",
        "group": "fengyun-1c-debris",
        "lat": 10.764785616126458,
        "lon": -162.3777970676114,
        "alt_km": 861.9430117350694,
        "timestamp": "2025-12-26T17:24:54.993103+00:00",
        "meta_object_name": "FENGYUN 1C DEB",
        "meta_object_id": "1999-025QE",
        "meta_epoch": "2025-12-26T01:36:02.398752",
        "meta_mean_motion": 14.0708085,
        "meta_eccentricity": 0.00207199,
        "meta_inclination": 98.7575,
        "meta_ra_of_asc_node": 15.3046,
        "meta_arg_of_pericenter": 224.9519,
        "meta_mean_anomaly": 208.224,
        "meta_ephemeris_type": 0,
        "meta_classification_type": "U",
        "meta_norad_cat_id": 30077,
        "meta_element_set_no": 999,
        "meta_rev_at_epoch": 97300,
        "meta_bstar": 0.00013400175,
        "meta_mean_motion_dot": 1.82e-06,
        "meta_mean_motion_ddot": 0,
        "tle_line1": "1 30077U 99025QE  25360.06669443  .00000182  00000+0  13400-3 0  9997",
        "tle_line2": "2 30077  98.7575  15.3046 0020719 224.9519 208.2240 14.07080850973000"
      },
      "geometry": {
        "type": "Point",
        "coordinates": [
          -162.3777970676114,
          10.764785616126458
        ]
      }
    },
    {
      "type": "Feature",
      "properties": {
        "norad_id": 30078,
        "name": "FENGYUN 1C DEB",
        "group": "fengyun-1c-debris",
        "lat": 32.030149833798674,
        "lon": -98.78000135488905,
        "alt_km": 814.0595267353801,
        "timestamp": "2025-12-26T17:24:54.993113+00:00",
        "meta_object_name": "FENGYUN 1C DEB",
        "meta_object_id": "1999-025QF",
        "meta_epoch": "2025-12-26T05:11:56.637600",
        "meta_mean_motion": 14.23210648,
        "meta_eccentricity": 0.00535618,
        "meta_inclination": 98.8315,
        "meta_ra_of_asc_node": 75.1279,
        "meta_arg_of_pericenter": 241.4006,
        "meta_mean_anomaly": 180.1868,
        "meta_ephemeris_type": 0,
        "meta_classification_type": "U",
        "meta_norad_cat_id": 30078,
        "meta_element_set_no": 999,
        "meta_rev_at_epoch": 97305,
        "meta_bstar": 0.0013176314,
        "meta_mean_motion_dot": 2.979e-05,
        "meta_mean_motion_ddot": 0,
        "tle_line1": "1 30078U 99025QF  25360.21662775  .00002979  00000+0  13176-2 0  9991",
        "tle_line2": "2 30078  98.8315  75.1279 0053561 241.4006 180.1868 14.23210648973059"
      },
      "geometry": {
        "type": "Point",
        "coordinates": [
          -98.78000135488905,
          32.030149833798674
        ]
      }
    },
    {
      "type": "Feature",
      "properties": {
        "norad_id": 30079,
        "name": "FENGYUN 1C DEB",
        "group": "fengyun-1c-debris",
        "lat": -18.568044238947987,
        "lon": -126.95605596736074,
        "alt_km": 865.5300215835068,
        "timestamp": "2025-12-26T17:24:54.993123+00:00",
        "meta_object_name": "FENGYUN 1C DEB",
        "meta_object_id": "1999-025QG",
        "meta_epoch": "2025-12-26T03:00:33.315840",
        "meta_mean_motion": 14.00800809,
        "meta_eccentricity": 0.00851341,
        "meta_inclination": 99.0324,
        "meta_ra_of_asc_node": 55.5135,
        "meta_arg_of_pericenter": 261.3149,
        "meta_mean_anomaly": 152.8952,
        "meta_ephemeris_type": 0,
        "meta_classification_type": "U",
        "meta_norad_cat_id": 30079,
        "meta_element_set_no": 999,
        "meta_rev_at_epoch": 96725,
        "meta_bstar": 0.00013501809,
        "meta_mean_motion_dot": 1.63e-06,
        "meta_mean_motion_ddot": 0,
        "tle_line1": "1 30079U 99025QG  25360.12538560  .00000163  00000+0  13502-3 0  9993",
        "tle_line2": "2 30079  99.0324  55.5135 0085134 261.3149 152.8952 14.00800809967250"
      },
      "geometry": {
        "type": "Point",
        "coordinates": [
          -126.95605596736074,
          -18.568044238947987
        ]
      }
    }
  ]
}